{
    "links": {
        "self": "http://www.neowsapp.com/rest/v1/neo/3843824?api_key=iIulBulltgU6a56xZRHN4H3l9WmuAYTsLGpBGhQ2"
    },
    "id": "3843824",
    "neo_reference_id": "3843824",
    "name": "(2019 RH2)",
    "designation": "2019 RH2",
    "nasa_jpl_url": "http://ssd.jpl.nasa.gov/sbdb.cgi?sstr=3843824",
    "absolute_magnitude_h": 25.3,
    "estimated_diameter": {
        "kilometers": {
            "estimated_diameter_min": 0.0231502122,
            "estimated_diameter_max": 0.0517654482
        },
        "meters": {
            "estimated_diameter_min": 23.150212221,
            "estimated_diameter_max": 51.7654482198
        },
        "miles": {
            "estimated_diameter_min": 0.0143848705,
            "estimated_diameter_max": 0.0321655483
        },
        "feet": {
            "estimated_diameter_min": 75.9521422633,
            "estimated_diameter_max": 169.8341531374
        }
    },
    "is_potentially_hazardous_asteroid": false,
    "close_approach_data": [
        {
            "close_approach_date": "2010-03-10",
            "close_approach_date_full": "2010-Mar-10 02:53",
            "epoch_date_close_approach": 1268189580000,
            "relative_velocity": {
                "kilometers_per_second": "6.6963190352",
                "kilometers_per_hour": "24106.7485267269",
                "miles_per_hour": "14978.9960498432"
            },
            "miss_distance": {
                "astronomical": "0.2506126672",
                "lunar": "97.4883275408",
                "kilometers": "37491121.208138864",
                "miles": "23295902.4733857632"
            },
            "orbiting_body": "Earth"
        },
        {
            "close_approach_date": "2015-01-07",
            "close_approach_date_full": "2015-Jan-07 12:16",
            "epoch_date_close_approach": 1420632960000,
            "relative_velocity": {
                "kilometers_per_second": "4.9783255461",
                "kilometers_per_hour": "17921.9719658118",
                "miles_per_hour": "11136.016413979"
            },
            "miss_distance": {
                "astronomical": "0.2909189601",
                "lunar": "113.1674754789",
                "kilometers": "43520856.773574987",
                "miles": "27042606.4167773406"
            },
            "orbiting_body": "Earth"
        },
        {
            "close_approach_date": "2019-09-04",
            "close_approach_date_full": "2019-Sep-04 03:10",
            "epoch_date_close_approach": 1567566600000,
            "relative_velocity": {
                "kilometers_per_second": "5.6230575578",
                "kilometers_per_hour": "20243.0072081487",
                "miles_per_hour": "12578.2174510855"
            },
            "miss_distance": {
                "astronomical": "0.0928803294",
                "lunar": "36.1304481366",
                "kilometers": "13894699.443138378",
                "miles": "8633765.8809224964"
            },
            "orbiting_body": "Earth"
        },
        {
            "close_approach_date": "2024-04-04",
            "close_approach_date_full": "2024-Apr-04 18:11",
            "epoch_date_close_approach": 1712254260000,
            "relative_velocity": {
                "kilometers_per_second": "6.0603754127",
                "kilometers_per_hour": "21817.3514856517",
                "miles_per_hour": "13556.4537606262"
            },
            "miss_distance": {
                "astronomical": "0.2523461767",
                "lunar": "98.1626627363",
                "kilometers": "37750450.536963629",
                "miles": "23457042.2461669202"
            },
            "orbiting_body": "Earth"
        },
        {
            "close_approach_date": "2029-02-08",
            "close_approach_date_full": "2029-Feb-08 00:05",
            "epoch_date_close_approach": 1865203500000,
            "relative_velocity": {
                "kilometers_per_second": "6.4585953976",
                "kilometers_per_hour": "23250.9434312335",
                "miles_per_hour": "14447.2320448128"
            },
            "miss_distance": {
                "astronomical": "0.2714633827",
                "lunar": "105.5992558703",
                "kilometers": "40610343.834914849",
                "miles": "25234097.5383649562"
            },
            "orbiting_body": "Earth"
        }
    ],
    "orbital_data": {
        "orbit_id": "6",
        "orbit_determination_date": "2019-10-08 05:58:10",
        "first_observation_date": "2019-09-06",
        "last_observation_date": "2019-09-24",
        "data_arc_in_days": 18,
        "observations_used": 39,
        "orbit_uncertainty": "7",
        "minimum_orbit_intersection": ".0931945",
        "jupiter_tisserand_invariant": "5.369",
        "epoch_osculation": "2459000.5",
        "eccentricity": ".06140919394647351",
        "semi_major_axis": "1.172462268798719",
        "inclination": "10.88597606187059",
        "ascending_node_longitude": "344.3489945886898",
        "orbital_period": "463.7102973520516",
        "perihelion_distance": "1.100462305939136",
        "perihelion_argument": "353.6802779522761",
        "aphelion_distance": "1.244462231658301",
        "perihelion_time": "2459191.363235235025",
        "mean_anomaly": "211.8239403416925",
        "mean_motion": ".7763467881902263",
        "equinox": "J2000",
        "orbit_class": {
            "orbit_class_type": "AMO",
            "orbit_class_description": "Near-Earth asteroid orbits similar to that of 1221 Amor",
            "orbit_class_range": "1.017 AU < q (perihelion) < 1.3 AU"
        }
    },
    "is_sentry_object": false
}